NORAD_CAT_ID,OBJECT_NAME,OBJECT_TYPE,EPOCH,MEAN_MOTION,ECCENTRICITY,INCLINATION,RA_OF_ASC_NODE,ARG_OF_PERICENTER,MEAN_ANOMALY,BSTAR,MEAN_MOTION_DOT,MEAN_MOTION_DDOT,TLE_LINE0,TLE_LINE1,TLE_LINE2,SEMIMAJOR_AXIS,PERIOD,APOGEE,PERIGEE,DECAYED
55427.0,STARLINK-5073,PAYLOAD,2023-05-18 06:00:00,15.1959866,0.0003195,69.9977,153.0463,272.7757,209.5507,-0.046164,-0.00913579,0.0,0 STARLINK-5073,1 55427U 23014AN  23138.25001157 -.00913579  00000-0 -46164-1 0  9999,2 55427  69.9977 153.0463 0003195 272.7757 209.5507 15.19598660 16857,6885.19,94.762,509.254,504.855,0.0
55427.0,STARLINK-5073,PAYLOAD,2023-05-18 14:00:01,15.18982343,0.0003081,69.9973,152.1779,277.1924,227.7238,-0.049655,-0.00961332,0.0,0 STARLINK-5073,1 55427U 23014AN  23138.58334491 -.00961332  00000-0 -49655-1 0  9993,2 55427  69.9973 152.1779 0003081 277.1924 227.7238 15.18982343  1303,6887.052,94.8,511.039,506.795,0.0
55427.0,STARLINK-5073,PAYLOAD,2023-05-18 22:00:00,15.18287884,0.0003071,69.9973,151.3107,269.8367,256.9144,-0.045991,-0.00878721,0.0,0 STARLINK-5073,1 55427U 23014AN  23138.91667824 -.00878721  00000-0 -45991-1 0  9997,2 55427  69.9973 151.3107 0003071 269.8367 256.9144 15.18287884  1305,6889.152,94.844,513.133,508.901,0.0
55427.0,STARLINK-5073,PAYLOAD,2023-05-19 06:00:00,15.17634891,0.0003105,69.9975,150.444,272.6723,275.131,-0.048248,-0.00902817,0.0,0 STARLINK-5073,1 55427U 23014AN  23139.25001157 -.00902817  00000-0 -48248-1 0  9998,2 55427  69.9975 150.4440 0003105 272.6723 275.1310 15.17634891 17019,6891.128,94.884,515.133,510.853,0.0
55427.0,STARLINK-5073,PAYLOAD,2023-05-19 22:00:01,15.16336267,0.0003057,69.9972,148.7136,267.2071,320.3864,-0.049109,-0.00886514,0.0,0 STARLINK-5073,1 55427U 23014AN  23139.91668981 -.00886514  00000-0 -49109-1 0  9997,2 55427  69.9972 148.7136 0003057 267.2071 320.3864 15.16336267  1307,6895.062,94.966,519.035,514.819,0.0
55427.0,STARLINK-5073,PAYLOAD,2023-05-20 06:00:00,15.15674074,0.0003126,69.9975,147.8497,271.2532,334.9858,-0.050531,-0.00894515,0.0,0 STARLINK-5073,1 55427U 23014AN  23140.25001157 -.00894515  00000-0 -50531-1 0  9993,2 55427  69.9975 147.8497 0003126 271.2532 334.9858 15.15674074 17169,6897.07,95.007,521.091,516.779,0.0
55427.0,STARLINK-5073,PAYLOAD,2023-05-20 22:00:01,15.14382305,0.0003143,69.9973,146.1244,265.9791,15.3546,-0.052226,-0.00891463,0.0,0 STARLINK-5073,1 55427U 23014AN  23140.91668981 -.00891463  00000-0 -52226-1 0  9992,2 55427  69.9973 146.1244 0003143 265.9791  15.3546 15.14382305 17262,6900.991,95.088,525.025,520.687,0.0
55427.0,STARLINK-5073,PAYLOAD,2023-05-21 14:00:01,15.13116571,0.0003124,69.9973,144.4027,272.4277,40.7509,-0.059614,-0.00974962,0.0,0 STARLINK-5073,1 55427U 23014AN  23141.58334491 -.00974962  00000-0 -59614-1 0  9996,2 55427  69.9973 144.4027 0003124 272.4277  40.7509 15.13116571 17364,6904.839,95.168,528.861,524.547,0.0
55427.0,STARLINK-5073,PAYLOAD,2023-05-22 00:00:00,15.12299595,0.0003148,69.9977,143.3284,267.9555,153.5773,-0.059756,-0.00956643,0.0,0 STARLINK-5073,1 55427U 23014AN  23142.00001157 -.00956643  00000-0 -59756-1 0  9997,2 55427  69.9977 143.3284 0003148 267.9555 153.5773 15.12299595  1305,6907.326,95.219,531.365,527.017,0.0
55427.0,STARLINK-5073,PAYLOAD,2023-05-22 06:00:02,15.11758096,0.000322,69.9978,142.6844,270.9075,71.1423,-0.05593,-0.00887189,0.0,0 STARLINK-5073,1 55427U 23014AN  23142.25002315 -.00887189  00000-0 -55930-1 0  9999,2 55427  69.9978 142.6844 0003220 270.9075  71.1423 15.11758096 17468,6908.975,95.253,533.065,528.616,0.0
55427.0,STARLINK-5073,PAYLOAD,2023-05-22 09:16:21,15.13106719,0.0002719,69.9962,142.3393,235.5748,124.5161,-0.015149,-0.00259519,0.0,0 STARLINK-5073,1 55427U 23014AN  23142.38636566 -.00259519  00000-0 -15149-1 0  9992,2 55427  69.9962 142.3393 0002719 235.5748 124.5161 15.13106719 18423,6904.869,95.168,528.612,524.857,0.0
55427.0,STARLINK-5073,PAYLOAD,2023-05-22 22:00:00,15.10475406,0.0003212,69.9977,140.9697,266.1649,101.464,-0.059063,-0.00902869,0.0,0 STARLINK-5073,1 55427U 23014AN  23142.91667824 -.00902869  00000-0 -59063-1 0  9998,2 55427  69.9977 140.9697 0003212 266.1649 101.4640 15.10475406 17568,6912.886,95.334,536.972,532.531,0.0
55427.0,STARLINK-5073,PAYLOAD,2023-05-23 14:00:01,15.09201017,0.000313,69.9978,139.2583,272.2734,117.8794,-0.066406,-0.00974053,0.0,0 STARLINK-5073,1 55427U 23014AN  23143.58334491 -.00974053  00000-0 -66406-1 0  9996,2 55427  69.9978 139.2583 0003130 272.2734 117.8794 15.09201017 17661,6916.777,95.415,540.807,536.477,0.0
55427.0,STARLINK-5073,PAYLOAD,2023-05-23 22:00:00,15.08522825,0.0003188,69.998,138.404,266.1879,134.0589,-0.062853,-0.00909922,0.0,0 STARLINK-5073,1 55427U 23014AN  23143.91667824 -.00909922  00000-0 -62853-1 0  9997,2 55427  69.9980 138.4040 0003188 266.1879 134.0589 15.08522825  1307,6918.85,95.458,542.921,538.509,0.0
55427.0,STARLINK-5073,PAYLOAD,2023-05-24 06:00:00,15.07843199,0.0003194,69.9983,137.5505,271.0324,138.5385,-0.062032,-0.0088349,0.0,0 STARLINK-5073,1 55427U 23014AN  23144.25001157 -.00883490  00000-0 -62032-1 0  9996,2 55427  69.9983 137.5505 0003194 271.0324 138.5385 15.07843199 17762,6920.929,95.501,545.004,540.583,0.0
55427.0,STARLINK-5073,PAYLOAD,2023-05-24 22:00:00,15.06570255,0.0003163,69.9983,135.8461,268.1745,157.6499,-0.066911,-0.00917806,0.0,0 STARLINK-5073,1 55427U 23014AN  23144.91667824 -.00917806  00000-0 -66911-1 0  9997,2 55427  69.9983 135.8461 0003163 268.1745 157.6499 15.06570255 17862,6924.827,95.581,548.882,544.501,0.0
55427.0,STARLINK-5073,PAYLOAD,2023-05-25 14:00:01,15.05284739,0.0003145,69.9982,134.1452,273.66,165.3048,-0.073444,-0.00980116,0.0,0 STARLINK-5073,1 55427U 23014AN  23145.58334491 -.00980116  00000-0 -73444-1 0  9995,2 55427  69.9982 134.1452 0003145 273.6600 165.3048 15.05284739  1300,6928.769,95.663,552.813,548.455,0.0
55427.0,STARLINK-5073,PAYLOAD,2023-05-25 22:00:00,15.04615638,0.000311,69.9985,133.2961,268.4172,175.9447,-0.070845,-0.00921509,0.0,0 STARLINK-5073,1 55427U 23014AN  23145.91667824 -.00921509  00000-0 -70845-1 0  9994,2 55427  69.9985 133.2961 0003110 268.4172 175.9447 15.04615638 18017,6930.823,95.706,554.843,550.532,0.0
55427.0,STARLINK-5073,PAYLOAD,2023-05-26 00:00:02,15.04477411,0.0003055,69.9987,133.0839,267.2498,268.3955,-0.075054,-0.00980082,0.0,0 STARLINK-5073,1 55427U 23014AN  23146.00002315 -.00980082  00000-0 -75054-1 0  9991,2 55427  69.9987 133.0839 0003055 267.2498 268.3955 15.04477411  1307,6931.247,95.714,555.23,550.995,0.0
55427.0,STARLINK-5073,PAYLOAD,2023-05-26 14:00:01,15.03324562,0.0003105,69.9983,131.6003,273.5905,179.2198,-0.077056,-0.00975971,0.0,0 STARLINK-5073,1 55427U 23014AN  23146.58334491 -.00975971  00000-0 -77056-1 0  9992,2 55427  69.9983 131.6003 0003105 273.5905 179.2198 15.03324562  1305,6934.79,95.788,558.809,554.502,0.0
55427.0,STARLINK-5073,PAYLOAD,2023-05-26 22:00:01,15.02663136,0.0003093,69.9986,130.7539,268.7447,187.1761,-0.075216,-0.00928077,0.0,0 STARLINK-5073,1 55427U 23014AN  23146.91668981 -.00928077  00000-0 -75216-1 0  9994,2 55427  69.9986 130.7539 0003093 268.7447 187.1761 15.02663136 18163,6936.825,95.83,560.836,556.545,0.0
55427.0,STARLINK-5073,PAYLOAD,2023-05-27 22:00:00,15.0070976,0.0003087,69.9985,128.2195,267.0222,193.2922,-0.079604,-0.0094304,0.0,0 STARLINK-5073,1 55427U 23014AN  23147.91667824 -.00943040  00000-0 -79604-1 0  9992,2 55427  69.9985 128.2195 0003087 267.0222 193.2922 15.00709760  1305,6942.843,95.955,566.852,562.565,0.0
55427.0,STARLINK-5073,PAYLOAD,2023-05-28 06:00:00,14.99962289,0.0003129,69.9983,127.3764,271.4995,188.7662,-0.064782,-0.00755546,0.0,0 STARLINK-5073,1 55427U 23014AN  23148.25001157 -.00755546  00000-0 -64782-1 0  9994,2 55427  69.9983 127.3764 0003129 271.4995 188.7662 14.99962289 18366,6945.15,96.002,569.188,564.842,0.0
55427.0,STARLINK-5073,PAYLOAD,2023-05-28 14:00:01,14.99343195,0.0003085,69.9981,126.5341,270.0578,189.3291,-0.007475,-0.0009049,0.0,0 STARLINK-5073,1 55427U 23014AN  23148.58334491 -.00090490  00000-0 -74750-2 0  9997,2 55427  69.9981 126.5341 0003085 270.0578 189.3291 14.99343195 18419,6947.061,96.042,571.07,566.783,0.0
55427.0,STARLINK-5073,PAYLOAD,2023-05-28 22:00:00,14.9929363,0.0003132,69.9986,125.6922,265.7062,192.3369,0.0017682,0.00021605,0.0,0 STARLINK-5073,1 55427U 23014AN  23148.91667824  .00021605  00000-0  17682-2 0  9994,2 55427  69.9986 125.6922 0003132 265.7062 192.3369 14.99293630 18464,6947.215,96.045,571.255,566.904,0.0
55427.0,STARLINK-5073,PAYLOAD,2023-05-29 14:00:01,14.99315834,0.0003036,69.9987,124.0088,271.0956,184.243,-0.0038623,-0.00047056,0.0,0 STARLINK-5073,1 55427U 23014AN  23149.58334491 -.00047056  00000-0 -38623-2 0  9997,2 55427  69.9987 124.0088 0003036 271.0956 184.2430 14.99315834 18567,6947.146,96.044,571.12,566.902,0.0
55427.0,STARLINK-5073,PAYLOAD,2023-05-29 22:00:00,14.99298386,0.0003052,69.9993,123.1671,266.285,187.6976,0.0017676,0.000216,0.0,0 STARLINK-5073,1 55427U 23014AN  23149.91667824  .00021600  00000-0  17676-2 0  9993,2 55427  69.9993 123.1671 0003052 266.2850 187.6976 14.99298386  1307,6947.2,96.045,571.185,566.945,0.0
55427.0,STARLINK-5073,PAYLOAD,2023-05-30 06:00:00,14.99303334,0.0003091,69.9997,122.3252,272.6195,180.0242,-0.0013818,-0.00016962,0.0,0 STARLINK-5073,1 55427U 23014AN  23150.25001157 -.00016962  00000-0 -13818-2 0  9994,2 55427  69.9997 122.3252 0003091 272.6195 180.0242 14.99303334 18663,6947.185,96.045,571.197,566.902,0.0
55427.0,STARLINK-5073,PAYLOAD,2023-05-30 14:00:01,14.99306994,0.0003055,69.9994,121.4834,271.0914,180.1911,-0.0036391,-0.00044349,0.0,0 STARLINK-5073,1 55427U 23014AN  23150.58334491 -.00044349  00000-0 -36391-2 0  9991,2 55427  69.9994 121.4834 0003055 271.0914 180.1911 14.99306994  1300,6947.173,96.044,571.161,566.916,0.0
55427.0,STARLINK-5073,PAYLOAD,2023-05-31 00:00:02,14.99317496,0.0003114,69.9998,120.4311,266.9211,272.7149,-0.0021889,-0.00026787,0.0,0 STARLINK-5073,1 55427U 23014AN  23151.00002315 -.00026787  00000-0 -21889-2 0  9998,2 55427  69.9998 120.4311 0003114 266.9211 272.7149 14.99317496  1302,6947.141,96.044,571.169,566.842,0.0
